NORAD_CAT_ID,OBJECT_NAME,OBJECT_TYPE,EPOCH,MEAN_MOTION,ECCENTRICITY,INCLINATION,RA_OF_ASC_NODE,ARG_OF_PERICENTER,MEAN_ANOMALY,BSTAR,MEAN_MOTION_DOT,MEAN_MOTION_DDOT,TLE_LINE0,TLE_LINE1,TLE_LINE2,SEMIMAJOR_AXIS,PERIOD,APOGEE,PERIGEE,DECAYED
51808.0,STARLINK-3609,PAYLOAD,2022-05-12 20:00:01,15.32809907,0.0001635,53.2174,131.0417,40.7462,74.2981,-0.024115,-0.00715453,0.0,0 STARLINK-3609,1 51808U 22017AS  22132.83334491 -.00715453  00000-0 -24115-1 0  9990,2 51808  53.2174 131.0417 0001635  40.7462  74.2981 15.32809907 13167,6845.57,93.945,468.555,466.316,0.0
51808.0,STARLINK-3609,PAYLOAD,2022-05-12 22:00:00,15.32684361,0.0001665999999999,53.2173,130.6539,48.0619,167.0609,-0.024342,-0.00719036,0.0,0 STARLINK-3609,1 51808U 22017AS  22132.91667824 -.00719036  00000-0 -24342-1 0  9991,2 51808  53.2173 130.6539 0001666  48.0619 167.0609 15.32684361  1301,6845.944,93.953,468.95,466.669,0.0
51808.0,STARLINK-3609,PAYLOAD,2022-05-13 14:00:01,15.31665454,0.0001439,53.2172,127.5586,53.8467,240.5274,-0.025194,-0.00720517,0.0,0 STARLINK-3609,1 51808U 22017AS  22133.58334491 -.00720517  00000-0 -25194-1 0  9998,2 51808  53.2172 127.5586 0001439  53.8467 240.5274 15.31665454  1306,6848.98,94.015,471.831,469.859,0.0
51808.0,STARLINK-3609,PAYLOAD,2022-05-13 20:00:01,15.31279929,0.0001496999999999,53.2173,126.3972,56.8199,176.6437,-0.025282,-0.0071481,0.0,0 STARLINK-3609,1 51808U 22017AS  22133.83334491 -.00714810  00000-0 -25282-1 0  9993,2 51808  53.2173 126.3972 0001497  56.8199 176.6437 15.31279929 13325,6850.129,94.039,473.02,470.969,0.0
51808.0,STARLINK-3609,PAYLOAD,2022-05-13 22:00:00,15.31151935,0.0001357,53.2174,126.0106,56.0989,276.9844,-0.025374,-0.00714541,0.0,0 STARLINK-3609,1 51808U 22017AS  22133.91667824 -.00714541  00000-0 -25374-1 0  9994,2 51808  53.2174 126.0106 0001357  56.0989 276.9844 15.31151935  1303,6850.511,94.047,473.306,471.447,0.0
51808.0,STARLINK-3609,PAYLOAD,2022-05-14 14:00:01,15.30134211,0.000147,53.2173,122.9225,45.3647,3.2927,-0.026324,-0.00717848,0.0,0 STARLINK-3609,1 51808U 22017AS  22134.58334491 -.00717848  00000-0 -26324-1 0  9998,2 51808  53.2173 122.9225 0001470  45.3647   3.2927 15.30134211  1307,6853.549,94.109,476.421,474.406,0.0
51808.0,STARLINK-3609,PAYLOAD,2022-05-14 20:00:01,15.29748887,0.0001509,53.2173,121.7637,43.3655,303.0027,-0.026454,-0.00713188,0.0,0 STARLINK-3609,1 51808U 22017AS  22134.83334491 -.00713188  00000-0 -26454-1 0  9993,2 51808  53.2173 121.7637 0001509  43.3655 303.0027 15.29748887 13472,6854.699000000001,94.133,477.599,475.53,0.0
51808.0,STARLINK-3609,PAYLOAD,2022-05-14 22:00:00,15.29623201,0.0001665999999999,53.2174,121.3779,40.784,44.7433,-0.026675,-0.00716126,0.0,0 STARLINK-3609,1 51808U 22017AS  22134.91667824 -.00716126  00000-0 -26675-1 0  9991,2 51808  53.2174 121.3779 0001666  40.7840  44.7433 15.29623201  1308,6855.075,94.141,478.082,475.798,0.0
51808.0,STARLINK-3609,PAYLOAD,2022-05-15 14:00:01,15.2860364,0.0001616,53.2172,118.2968,47.3344,110.155,-0.02755,-0.00724907,0.0,0 STARLINK-3609,1 51808U 22017AS  22135.58335648 -.00724907  00000-0 -27550-1 0  9990,2 51808  53.2172 118.2968 0001616  47.3344 110.1550 15.28603640  1300,6858.123000000001,94.204,481.096,478.879,0.0
51808.0,STARLINK-3609,PAYLOAD,2022-05-15 20:00:01,15.28220652,0.0001691,53.2173,117.141,38.5473,55.2095,-0.027863,-0.00724585,0.0,0 STARLINK-3609,1 51808U 22017AS  22135.83334491 -.00724585  00000-0 -27863-1 0  9992,2 51808  53.2173 117.1410 0001691  38.5473  55.2095 15.28220652 13628,6859.268,94.227,482.293,479.974,0.0
51808.0,STARLINK-3609,PAYLOAD,2022-05-15 22:00:00,15.28094298,0.0001766,53.2173,116.7563,44.3474,148.1087,-0.028011,-0.00725553,0.0,0 STARLINK-3609,1 51808U 22017AS  22135.91667824 -.00725553  00000-0 -28011-1 0  9992,2 51808  53.2173 116.7563 0001766  44.3474 148.1087 15.28094298  1301,6859.647,94.235,482.723,480.3,0.0
51808.0,STARLINK-3609,PAYLOAD,2022-05-16 14:00:01,15.2707506,0.0001568,53.2173,113.6821,51.3075,209.3704,-0.028981,-0.00727451,0.0,0 STARLINK-3609,1 51808U 22017AS  22136.58334491 -.00727451  00000-0 -28981-1 0  9992,2 51808  53.2173 113.6821 0001568  51.3075 209.3704 15.27075060  1300,6862.698,94.298,485.64,483.487,0.0
51808.0,STARLINK-3609,PAYLOAD,2022-05-16 20:00:01,15.26691897,0.0001789,53.2171,112.529,42.4637,153.1667,-0.02928,-0.00726515,0.0,0 STARLINK-3609,1 51808U 22017AS  22136.83334491 -.00726515  00000-0 -29280-1 0  9993,2 51808  53.2171 112.5290 0001789  42.4637 153.1667 15.26691897 13775,6863.847,94.322,486.94,484.484,0.0
51808.0,STARLINK-3609,PAYLOAD,2022-05-16 22:00:00,15.26562717,0.000165,53.2174,112.1451,44.9891,248.8821,-0.029218,-0.00722403,0.0,0 STARLINK-3609,1 51808U 22017AS  22136.91667824 -.00722403  00000-0 -29218-1 0  9994,2 51808  53.2174 112.1451 0001650  44.9891 248.8821 15.26562717  1307,6864.234,94.33,487.231,484.966,0.0
51808.0,STARLINK-3609,PAYLOAD,2022-05-17 14:00:01,15.25544876,0.0001607,53.2174,109.0781,40.7398,317.7396,-0.03034,-0.00727002,0.0,0 STARLINK-3609,1 51808U 22017AS  22137.58335648 -.00727002  00000-0 -30340-1 0  9992,2 51808  53.2174 109.0781 0001607  40.7398 317.7396 15.25544876  1304,6867.2869999999975,94.393,490.255,488.048,0.0
51808.0,STARLINK-3609,PAYLOAD,2022-05-17 22:00:01,15.25032306,0.0001693,53.2174,107.5451,38.8876,350.9465,-0.030568,-0.00721607,0.0,0 STARLINK-3609,1 51808U 22017AS  22137.91668981 -.00721607  00000-0 -30568-1 0  9995,2 51808  53.2174 107.5451 0001693  38.8876 350.9465 15.25032306  1301,6868.825,94.424,491.853,489.528,0.0
51808.0,STARLINK-3609,PAYLOAD,2022-05-18 04:00:01,15.2465092,0.000192,53.2173,106.3983,34.3253,288.6207,-0.031038,-0.00724181,0.0,0 STARLINK-3609,1 51808U 22017AS  22138.16668981 -.00724181  00000-0 -31038-1 0  9996,2 51808  53.2173 106.3983 0001920  34.3253 288.6207 15.24650920 13985,6869.971,94.448,493.155,490.517,0.0
51808.0,STARLINK-3609,PAYLOAD,2022-05-18 14:00:01,15.24013928,0.0001714,53.2174,104.4852,39.5052,51.1334,-0.031667,-0.00724789,0.0,0 STARLINK-3609,1 51808U 22017AS  22138.58334491 -.00724789  00000-0 -31667-1 0  9990,2 51808  53.2174 104.4852 0001714  39.5052  51.1334 15.24013928  1303,6871.885,94.487,494.92800000000005,492.572,0.0
51808.0,STARLINK-3609,PAYLOAD,2022-05-18 22:00:00,15.23503215,0.0002032,53.2175,102.9558,33.2296,86.9248,-0.032062,-0.00722877,0.0,0 STARLINK-3609,1 51808U 22017AS  22138.91667824 -.00722877  00000-0 -32062-1 0  9992,2 51808  53.2175 102.9558 0002032  33.2296  86.9248 15.23503215  1307,6873.420999999999,94.519,496.682,493.889,0.0
51808.0,STARLINK-3609,PAYLOAD,2022-05-19 04:00:00,15.23122453,0.000195,53.2174,101.8118,32.1642,19.7231,-0.032607,-0.00726581,0.0,0 STARLINK-3609,1 51808U 22017AS  22139.16667824 -.00726581  00000-0 -32607-1 0  9991,2 51808  53.2174 101.8118 0001950  32.1642  19.7231 15.23122453 14139,6874.566,94.543,497.772,495.091,0.0
51808.0,STARLINK-3609,PAYLOAD,2022-05-19 14:00:01,15.22484384,0.0001786999999999,53.2174,99.9028,43.7975,133.6119,-0.033163,-0.00725153,0.0,0 STARLINK-3609,1 51808U 22017AS  22139.58335648 -.00725153  00000-0 -33163-1 0  9995,2 51808  53.2174  99.9028 0001787  43.7975 133.6119 15.22484384  1300,6876.486999999999,94.582,499.581,497.12300000000016,0.0
51808.0,STARLINK-3609,PAYLOAD,2022-05-19 22:00:00,15.21973741,0.0002003,53.2175,98.3774,37.6899,167.3331,-0.033577,-0.00723329,0.0,0 STARLINK-3609,1 51808U 22017AS  22139.91667824 -.00723329  00000-0 -33577-1 0  9998,2 51808  53.2175  98.3774 0002003  37.6899 167.3331 15.21973741  1300,6878.025,94.614,501.267,498.512,0.0
51808.0,STARLINK-3609,PAYLOAD,2022-05-20 12:00:00,15.21080861,0.0001882,53.2173,95.7123,39.3006,122.6824,-0.0344709999999999,-0.0072325,0.0,0 STARLINK-3609,1 51808U 22017AS  22140.50001157 -.00723250  00000-0 -34471-1 0  9993,2 51808  53.2173  95.7123 0001882  39.3006 122.6824 15.21080861 14330,6880.715999999999,94.67,503.876,501.286,0.0
51808.0,STARLINK-3609,PAYLOAD,2022-05-20 14:00:01,15.20955453,0.0001746,53.2175,95.3312,43.7364,214.8015,-0.034787,-0.00726909,0.0,0 STARLINK-3609,1 51808U 22017AS  22140.58334491 -.00726909  00000-0 -34787-1 0  9995,2 51808  53.2175  95.3312 0001746  43.7364 214.8015 15.20955453  1309,6881.094,94.677,504.161,501.758,0.0
51808.0,STARLINK-3609,PAYLOAD,2022-05-20 22:00:00,15.20443969,0.000183,53.2175,93.8094,40.5724,243.8045,-0.035131,-0.00723405,0.0,0 STARLINK-3609,1 51808U 22017AS  22140.91667824 -.00723405  00000-0 -35131-1 0  9993,2 51808  53.2175  93.8094 0001830  40.5724 243.8045 15.20443969  1307,6882.637,94.709,505.762,503.24300000000005,0.0
51808.0,STARLINK-3609,PAYLOAD,2022-05-21 06:00:00,15.19933186,0.0001771999999999,53.2176,92.291,40.449,269.153,-0.03562,-0.00722625,0.0,0 STARLINK-3609,1 51808U 22017AS  22141.25001157 -.00722625  00000-0 -35620-1 0  9998,2 51808  53.2176  92.2910 0001772  40.4490 269.1530 15.19933186  1305,6884.179,94.741,507.264,504.824,0.0
51808.0,STARLINK-3609,PAYLOAD,2022-05-21 12:00:00,15.1955289,0.0001809,53.2173,91.1504,40.0117,198.1074,-0.036222,-0.00726443,0.0,0 STARLINK-3609,1 51808U 22017AS  22141.50001157 -.00726443  00000-0 -36222-1 0  9997,2 51808  53.2173  91.1504 0001809  40.0117 198.1074 15.19552890 14499,6885.328,94.765,508.43800000000016,505.947,0.0
51808.0,STARLINK-3609,PAYLOAD,2022-05-21 14:00:01,15.19425153,0.0001704,53.2175,90.7704,39.3549,294.9239,-0.036367,-0.00726611,0.0,0 STARLINK-3609,1 51808U 22017AS  22141.58335648 -.00726611  00000-0 -36367-1 0  9997,2 51808  53.2175  90.7704 0001704  39.3549 294.9239 15.19425153  1307,6885.714,94.773,508.752,506.405,0.0
51808.0,STARLINK-3609,PAYLOAD,2022-05-21 22:00:00,15.18914189,0.0001749,53.2176,89.2524,38.5113,319.7044,-0.036763,-0.00723871,0.0,0 STARLINK-3609,1 51808U 22017AS  22141.91667824 -.00723871  00000-0 -36763-1 0  9993,2 51808  53.2176  89.2524 0001749  38.5113 319.7044 15.18914189  1309,6887.2580000000025,94.805,510.328,507.918,0.0
